<?xml version="1.0" encoding="UTF-8"?>
<gpx creator="Garmin Connect" version="1.1"
  xsi:schemaLocation="http://www.topografix.com/GPX/1/1 http://www.topografix.com/GPX/11.xsd"
  xmlns:ns3="http://www.garmin.com/xmlschemas/TrackPointExtension/v1"
  xmlns="http://www.topografix.com/GPX/1/1"
  xmlns:xsi="http://www.w3.org/2001/XMLSchema-instance" xmlns:ns2="http://www.garmin.com/xmlschemas/GpxExtensions/v3">
  <metadata>
    <link href="connect.garmin.com">
      <text>Garmin Connect</text>
    </link>
    <time>2024-05-19T09:21:33.000Z</time>
  </metadata>
  <trk>
    <name>Clos du Doubs Cyclisme</name>
    <type>cycling</type>
    <trkseg>
      <trkpt lat="47.36275616101920604705810546875" lon="7.1690335683524608612060546875">
        <ele>440.20001220703125</ele>
        <time>2024-05-19T09:21:33.000Z</time>
        <extensions>
          <ns3:TrackPointExtension>
            <ns3:atemp>31.0</ns3:atemp>
            <ns3:hr>106</ns3:hr>
          </ns3:TrackPointExtension>
        </extensions>
      </trkpt>
      <trkpt lat="47.36271835863590240478515625" lon="7.16907019726932048797607421875">
        <ele>440.20001220703125</ele>
        <time>2024-05-19T09:21:34.000Z</time>
        <extensions>
          <ns3:TrackPointExtension>
            <ns3:atemp>31.0</ns3:atemp>
            <ns3:hr>106</ns3:hr>
          </ns3:TrackPointExtension>
        </extensions>
      </trkpt>
      <trkpt lat="47.3626746051013469696044921875" lon="7.16910925693809986114501953125">
        <ele>440.20001220703125</ele>
        <time>2024-05-19T09:21:35.000Z</time>
        <extensions>
          <ns3:TrackPointExtension>
            <ns3:atemp>31.0</ns3:atemp>
            <ns3:hr>110</ns3:hr>
          </ns3:TrackPointExtension>
        </extensions>
      </trkpt>
      <trkpt lat="47.36259229481220245361328125" lon="7.1691847778856754302978515625">
        <ele>440.20001220703125</ele>
        <time>2024-05-19T09:21:37.000Z</time>
        <extensions>
          <ns3:TrackPointExtension>
            <ns3:atemp>31.0</ns3:atemp>
            <ns3:hr>113</ns3:hr>
          </ns3:TrackPointExtension>
        </extensions>
      </trkpt>
      <trkpt lat="47.36255348660051822662353515625" lon="7.169223167002201080322265625">
        <ele>440.20001220703125</ele>
        <time>2024-05-19T09:21:38.000Z</time>
        <extensions>
          <ns3:TrackPointExtension>
            <ns3:atemp>31.0</ns3:atemp>
            <ns3:hr>116</ns3:hr>
          </ns3:TrackPointExtension>
        </extensions>
      </trkpt>
      <trkpt lat="47.362514175474643707275390625" lon="7.169263400137424468994140625">
        <ele>440.20001220703125</ele>
        <time>2024-05-19T09:21:39.000Z</time>
        <extensions>
          <ns3:TrackPointExtension>
            <ns3:atemp>31.0</ns3:atemp>
            <ns3:hr>116</ns3:hr>
          </ns3:TrackPointExtension>
        </extensions>
      </trkpt>
      <trkpt lat="47.36228442750871181488037109375" lon="7.16944637708365917205810546875">
        <ele>441.600006103515625</ele>
        <time>2024-05-19T09:21:45.000Z</time>
        <extensions>
          <ns3:TrackPointExtension>
            <ns3:atemp>31.0</ns3:atemp>
            <ns3:hr>116</ns3:hr>
          </ns3:TrackPointExtension>
        </extensions>
      </trkpt>
      <trkpt lat="47.36220396123826503753662109375" lon="7.16952164657413959503173828125">
        <ele>442</ele>
        <time>2024-05-19T09:21:47.000Z</time>
        <extensions>
          <ns3:TrackPointExtension>
            <ns3:atemp>31.0</ns3:atemp>
            <ns3:hr>116</ns3:hr>
          </ns3:TrackPointExtension>
        </extensions>
      </trkpt>
      <trkpt lat="47.3621016182005405426025390625" lon="7.16961820609867572784423828125">
        <ele>442.79998779296875</ele>
        <time>2024-05-19T09:21:49.000Z</time>
        <extensions>
          <ns3:TrackPointExtension>
            <ns3:atemp>31.0</ns3:atemp>
            <ns3:hr>117</ns3:hr>
          </ns3:TrackPointExtension>
        </extensions>
      </trkpt>
      <trkpt lat="47.362046130001544952392578125" lon="7.169661708176136016845703125">
        <ele>442.399993896484375</ele>
        <time>2024-05-19T09:21:50.000Z</time>
        <extensions>
          <ns3:TrackPointExtension>
            <ns3:atemp>31.0</ns3:atemp>
            <ns3:hr>121</ns3:hr>
          </ns3:TrackPointExtension>
        </extensions>
      </trkpt>
      <trkpt lat="47.3619152046740055084228515625" lon="7.169787101447582244873046875">
        <ele>441.79998779296875</ele>
        <time>2024-05-19T09:21:53.000Z</time>
        <extensions>
          <ns3:TrackPointExtension>
            <ns3:atemp>31.0</ns3:atemp>
            <ns3:hr>122</ns3:hr>
          </ns3:TrackPointExtension>
        </extensions>
      </trkpt>
      <trkpt lat="47.36171831376850605010986328125" lon="7.17000427655875682830810546875">
        <ele>442.399993896484375</ele>
        <time>2024-05-19T09:21:59.000Z</time>
        <extensions>
          <ns3:TrackPointExtension>
            <ns3:atemp>31.0</ns3:atemp>
            <ns3:hr>122</ns3:hr>
          </ns3:TrackPointExtension>
        </extensions>
      </trkpt>
      <trkpt lat="47.36160163767635822296142578125" lon="7.17014157213270664215087890625">
        <ele>443.600006103515625</ele>
        <time>2024-05-19T09:22:04.000Z</time>
        <extensions>
          <ns3:TrackPointExtension>
            <ns3:atemp>31.0</ns3:atemp>
            <ns3:hr>119</ns3:hr>
          </ns3:TrackPointExtension>
        </extensions>
      </trkpt>
      <trkpt lat="47.36157380975782871246337890625" lon="7.1701602637767791748046875">
        <ele>443.79998779296875</ele>
        <time>2024-05-19T09:22:05.000Z</time>
        <extensions>
          <ns3:TrackPointExtension>
            <ns3:atemp>31.0</ns3:atemp>
            <ns3:hr>121</ns3:hr>
          </ns3:TrackPointExtension>
        </extensions>
      </trkpt>
      <trkpt lat="47.36132687889039516448974609375" lon="7.1703776903450489044189453125">
        <ele>443.20001220703125</ele>
        <time>2024-05-19T09:22:11.000Z</time>
        <extensions>
          <ns3:TrackPointExtension>
            <ns3:atemp>31.0</ns3:atemp>
            <ns3:hr>122</ns3:hr>
          </ns3:TrackPointExtension>
        </extensions>
      </trkpt>
      <trkpt lat="47.36119226552546024322509765625" lon="7.1704687178134918212890625">
        <ele>442.79998779296875</ele>
        <time>2024-05-19T09:22:13.000Z</time>
        <extensions>
          <ns3:TrackPointExtension>
            <ns3:atemp>31.0</ns3:atemp>
            <ns3:hr>124</ns3:hr>
          </ns3:TrackPointExtension>
        </extensions>
      </trkpt>
      <trkpt lat="47.360966540873050689697265625" lon="7.1705929376184940338134765625">
        <ele>442.399993896484375</ele>
        <time>2024-05-19T09:22:17.000Z</time>
        <extensions>
          <ns3:TrackPointExtension>
            <ns3:atemp>31.0</ns3:atemp>
            <ns3:hr>128</ns3:hr>
          </ns3:TrackPointExtension>
        </extensions>
      </trkpt>
      <trkpt lat="47.36062799580395221710205078125" lon="7.17067047022283077239990234375">
        <ele>442.20001220703125</ele>
        <time>2024-05-19T09:22:21.000Z</time>
        <extensions>
          <ns3:TrackPointExtension>
            <ns3:atemp>31.0</ns3:atemp>
            <ns3:hr>131</ns3:hr>
          </ns3:TrackPointExtension>
        </extensions>
      </trkpt>
      <trkpt lat="47.36046086065471172332763671875" lon="7.17067969031631946563720703125">
        <ele>442.600006103515625</ele>
        <time>2024-05-19T09:22:23.000Z</time>
        <extensions>
          <ns3:TrackPointExtension>
            <ns3:atemp>31.0</ns3:atemp>
            <ns3:hr>130</ns3:hr>
          </ns3:TrackPointExtension>
        </extensions>
      </trkpt>
      <trkpt lat="47.3603425920009613037109375" lon="7.170668542385101318359375">
        <ele>442.79998779296875</ele>
        <time>2024-05-19T09:22:25.000Z</time>
        <extensions>
          <ns3:TrackPointExtension>
            <ns3:atemp>31.0</ns3:atemp>
            <ns3:hr>126</ns3:hr>
          </ns3:TrackPointExtension>
        </extensions>
      </trkpt>
      <trkpt lat="47.3601199686527252197265625" lon="7.170707769691944122314453125">
        <ele>441.79998779296875</ele>
        <time>2024-05-19T09:22:29.000Z</time>
        <extensions>
          <ns3:TrackPointExtension>
            <ns3:atemp>31.0</ns3:atemp>
            <ns3:hr>124</ns3:hr>
          </ns3:TrackPointExtension>
        </extensions>
      </trkpt>
      <trkpt lat="47.36005266197025775909423828125" lon="7.170707099139690399169921875">
        <ele>441.79998779296875</ele>
        <time>2024-05-19T09:22:30.000Z</time>
        <extensions>
          <ns3:TrackPointExtension>
            <ns3:atemp>31.0</ns3:atemp>
            <ns3:hr>121</ns3:hr>
          </ns3:TrackPointExtension>
        </extensions>
      </trkpt>
      <trkpt lat="47.35999918542802333831787109375" lon="7.17071003280580043792724609375">
        <ele>441.79998779296875</ele>
        <time>2024-05-19T09:22:31.000Z</time>
        <extensions>
          <ns3:TrackPointExtension>
            <ns3:atemp>31.0</ns3:atemp>
            <ns3:hr>126</ns3:hr>
          </ns3:TrackPointExtension>
        </extensions>
      </trkpt>
      <trkpt lat="47.35986524261534214019775390625" lon="7.17071925289928913116455078125">
        <ele>443.20001220703125</ele>
        <time>2024-05-19T09:22:35.000Z</time>
        <extensions>
          <ns3:TrackPointExtension>
            <ns3:atemp>31.0</ns3:atemp>
            <ns3:hr>126</ns3:hr>
          </ns3:TrackPointExtension>
        </extensions>
      </trkpt>
      <trkpt lat="47.35974554903805255889892578125" lon="7.170857302844524383544921875">
        <ele>444.399993896484375</ele>
        <time>2024-05-19T09:22:38.000Z</time>
        <extensions>
          <ns3:TrackPointExtension>
            <ns3:atemp>31.0</ns3:atemp>
            <ns3:hr>127</ns3:hr>
          </ns3:TrackPointExtension>
        </extensions>
      </trkpt>
      <trkpt lat="47.3596685193479061126708984375" lon="7.17094707302749156951904296875">
        <ele>445.399993896484375</ele>
        <time>2024-05-19T09:22:40.000Z</time>
        <extensions>
          <ns3:TrackPointExtension>
            <ns3:atemp>31.0</ns3:atemp>
            <ns3:hr>129</ns3:hr>
          </ns3:TrackPointExtension>
        </extensions>
      </trkpt>
      <trkpt lat="47.3595163039863109588623046875" lon="7.171069867908954620361328125">
        <ele>445</ele>
        <time>2024-05-19T09:22:44.000Z</time>
        <extensions>
          <ns3:TrackPointExtension>
            <ns3:atemp>30.0</ns3:atemp>
            <ns3:hr>126</ns3:hr>
          </ns3:TrackPointExtension>
        </extensions>
      </trkpt>
      <trkpt lat="47.3594281263649463653564453125" lon="7.171167097985744476318359375">
        <ele>445.20001220703125</ele>
        <time>2024-05-19T09:22:47.000Z</time>
        <extensions>
          <ns3:TrackPointExtension>
            <ns3:atemp>30.0</ns3:atemp>
            <ns3:hr>125</ns3:hr>
          </ns3:TrackPointExtension>
        </extensions>
      </trkpt>
      <trkpt lat="47.35939216800034046173095703125" lon="7.1712343208491802215576171875">
        <ele>445.399993896484375</ele>
        <time>2024-05-19T09:22:49.000Z</time>
        <extensions>
          <ns3:TrackPointExtension>
            <ns3:atemp>30.0</ns3:atemp>
            <ns3:hr>122</ns3:hr>
          </ns3:TrackPointExtension>
        </extensions>
      </trkpt>
      <trkpt lat="47.359376661479473114013671875" lon="7.17126290313899517059326171875">
        <ele>445.600006103515625</ele>
        <time>2024-05-19T09:22:50.000Z</time>
        <extensions>
          <ns3:TrackPointExtension>
            <ns3:atemp>30.0</ns3:atemp>
            <ns3:hr>122</ns3:hr>
          </ns3:TrackPointExtension>
        </extensions>
      </trkpt>
      <trkpt lat="47.359287478029727935791015625" lon="7.17140371911227703094482421875">
        <ele>445.79998779296875</ele>
        <time>2024-05-19T09:22:53.000Z</time>
        <extensions>
          <ns3:TrackPointExtension>
            <ns3:atemp>30.0</ns3:atemp>
            <ns3:hr>120</ns3:hr>
          </ns3:TrackPointExtension>
        </extensions>
      </trkpt>
      <trkpt lat="47.35913224518299102783203125" lon="7.1717590279877185821533203125">
        <ele>446</ele>
        <time>2024-05-19T09:23:00.000Z</time>
        <extensions>
          <ns3:TrackPointExtension>
            <ns3:atemp>30.0</ns3:atemp>
            <ns3:hr>123</ns3:hr>
          </ns3:TrackPointExtension>
        </extensions>
      </trkpt>
      <trkpt lat="47.35910768620669841766357421875" lon="7.17182516120374202728271484375">
        <ele>446</ele>
        <time>2024-05-19T09:23:01.000Z</time>
        <extensions>
          <ns3:TrackPointExtension>
            <ns3:atemp>30.0</ns3:atemp>
            <ns3:hr>121</ns3:hr>
          </ns3:TrackPointExtension>
        </extensions>
      </trkpt>
      <trkpt lat="47.3590457439422607421875" lon="7.17195139266550540924072265625">
        <ele>446.600006103515625</ele>
        <time>2024-05-19T09:23:03.000Z</time>
        <extensions>
          <ns3:TrackPointExtension>
            <ns3:atemp>30.0</ns3:atemp>
            <ns3:hr>122</ns3:hr>
          </ns3:TrackPointExtension>
        </extensions>
      </trkpt>
      <trkpt lat="47.35901162959635257720947265625" lon="7.17200587503612041473388671875">
        <ele>446.79998779296875</ele>
        <time>2024-05-19T09:23:04.000Z</time>
        <extensions>
          <ns3:TrackPointExtension>
            <ns3:atemp>30.0</ns3:atemp>
            <ns3:hr>121</ns3:hr>
          </ns3:TrackPointExtension>
        </extensions>
      </trkpt>
      <trkpt lat="47.35894574783742427825927734375" lon="7.17210746370255947113037109375">
        <ele>446.79998779296875</ele>
        <time>2024-05-19T09:23:06.000Z</time>
        <extensions>
          <ns3:TrackPointExtension>
            <ns3:atemp>30.0</ns3:atemp>
            <ns3:hr>121</ns3:hr>
          </ns3:TrackPointExtension>
        </extensions>
      </trkpt>
      <trkpt lat="47.3588217794895172119140625" lon="7.17231340706348419189453125">
        <ele>446.20001220703125</ele>
        <time>2024-05-19T09:23:11.000Z</time>
        <extensions>
          <ns3:TrackPointExtension>
            <ns3:atemp>30.0</ns3:atemp>
            <ns3:hr>121</ns3:hr>
          </ns3:TrackPointExtension>
        </extensions>
      </trkpt>
      <trkpt lat="47.358713485300540924072265625" lon="7.172535359859466552734375">
        <ele>446</ele>
        <time>2024-05-19T09:23:15.000Z</time>
        <extensions>
          <ns3:TrackPointExtension>
            <ns3:atemp>30.0</ns3:atemp>
            <ns3:hr>118</ns3:hr>
          </ns3:TrackPointExtension>
        </extensions>
      </trkpt>
      <trkpt lat="47.358689010143280029296875" lon="7.17259311117231845855712890625">
        <ele>446.20001220703125</ele>
        <time>2024-05-19T09:23:16.000Z</time>
        <extensions>
          <ns3:TrackPointExtension>
            <ns3:atemp>30.0</ns3:atemp>
            <ns3:hr>120</ns3:hr>
          </ns3:TrackPointExtension>
        </extensions>
      </trkpt>
      <trkpt lat="47.35852547921240329742431640625" lon="7.17279964126646518707275390625">
        <ele>446.399993896484375</ele>
        <time>2024-05-19T09:23:21.000Z</time>
        <extensions>
          <ns3:TrackPointExtension>
            <ns3:atemp>30.0</ns3:atemp>
            <ns3:hr>123</ns3:hr>
          </ns3:TrackPointExtension>
        </extensions>
      </trkpt>
      <trkpt lat="47.35845440067350864410400390625" lon="7.172791175544261932373046875">
        <ele>446.399993896484375</ele>
        <time>2024-05-19T09:23:23.000Z</time>
        <extensions>
          <ns3:TrackPointExtension>
            <ns3:atemp>30.0</ns3:atemp>
            <ns3:hr>124</ns3:hr>
          </ns3:TrackPointExtension>
        </extensions>
      </trkpt>
      <trkpt lat="47.35837862826883792877197265625" lon="7.172777764499187469482421875">
        <ele>445.79998779296875</ele>
        <time>2024-05-19T09:23:25.000Z</time>
        <extensions>
          <ns3:TrackPointExtension>
            <ns3:atemp>30.0</ns3:atemp>
            <ns3:hr>121</ns3:hr>
          </ns3:TrackPointExtension>
        </extensions>
      </trkpt>
      <trkpt lat="47.358265221118927001953125" lon="7.17281824909150600433349609375">
        <ele>448.399993896484375</ele>
        <time>2024-05-19T09:23:27.000Z</time>
        <extensions>
          <ns3:TrackPointExtension>
            <ns3:atemp>30.0</ns3:atemp>
            <ns3:hr>123</ns3:hr>
          </ns3:TrackPointExtension>
        </extensions>
      </trkpt>
      <trkpt lat="47.35817310400307178497314453125" lon="7.17288714833557605743408203125">
        <ele>448.600006103515625</ele>
        <time>2024-05-19T09:23:29.000Z</time>
        <extensions>
          <ns3:TrackPointExtension>
            <ns3:atemp>30.0</ns3:atemp>
            <ns3:hr>126</ns3:hr>
          </ns3:TrackPointExtension>
        </extensions>
      </trkpt>
      <trkpt lat="47.35801803879439830780029296875" lon="7.17306283302605152130126953125">
        <ele>446.79998779296875</ele>
        <time>2024-05-19T09:23:33.000Z</time>
        <extensions>
          <ns3:TrackPointExtension>
            <ns3:atemp>30.0</ns3:atemp>
            <ns3:hr>127</ns3:hr>
          </ns3:TrackPointExtension>
        </extensions>
      </trkpt>
      <trkpt lat="47.357988618314266204833984375" lon="7.17312234453856945037841796875">
        <ele>446</ele>
        <time>2024-05-19T09:23:34.000Z</time>
        <extensions>
          <ns3:TrackPointExtension>
            <ns3:atemp>30.0</ns3:atemp>
            <ns3:hr>128</ns3:hr>
          </ns3:TrackPointExtension>
        </extensions>
      </trkpt>
      <trkpt lat="47.35796238295733928680419921875" lon="7.17317950911819934844970703125">
        <ele>445.600006103515625</ele>
        <time>2024-05-19T09:23:35.000Z</time>
        <extensions>
          <ns3:TrackPointExtension>
            <ns3:atemp>30.0</ns3:atemp>
            <ns3:hr>128</ns3:hr>
          </ns3:TrackPointExtension>
        </extensions>
      </trkpt>
      <trkpt lat="47.35792256891727447509765625" lon="7.17322309501469135284423828125">
        <ele>445.399993896484375</ele>
        <time>2024-05-19T09:23:36.000Z</time>
        <extensions>
          <ns3:TrackPointExtension>
            <ns3:atemp>30.0</ns3:atemp>
            <ns3:hr>128</ns3:hr>
          </ns3:TrackPointExtension>
        </extensions>
      </trkpt>
      <trkpt lat="47.35787202604115009307861328125" lon="7.17327740974724292755126953125">
        <ele>445.20001220703125</ele>
        <time>2024-05-19T09:23:37.000Z</time>
        <extensions>
          <ns3:TrackPointExtension>
            <ns3:atemp>30.0</ns3:atemp>
            <ns3:hr>128</ns3:hr>
          </ns3:TrackPointExtension>
        </extensions>
      </trkpt>
      <trkpt lat="47.3576040565967559814453125" lon="7.1732419542968273162841796875">
        <ele>445.399993896484375</ele>
        <time>2024-05-19T09:24:13.000Z</time>
        <extensions>
          <ns3:TrackPointExtension>
            <ns3:atemp>29.0</ns3:atemp>
            <ns3:hr>115</ns3:hr>
          </ns3:TrackPointExtension>
        </extensions>
      </trkpt>
      <trkpt lat="47.357580922544002532958984375" lon="7.1732402779161930084228515625">
        <ele>445.20001220703125</ele>
        <time>2024-05-19T09:24:14.000Z</time>
        <extensions>
          <ns3:TrackPointExtension>
            <ns3:atemp>29.0</ns3:atemp>
            <ns3:hr>116</ns3:hr>
          </ns3:TrackPointExtension>
        </extensions>
      </trkpt>
      <trkpt lat="47.35750640742480754852294921875" lon="7.17322594486176967620849609375">
        <ele>445</ele>
        <time>2024-05-19T09:24:17.000Z</time>
        <extensions>
          <ns3:TrackPointExtension>
            <ns3:atemp>29.0</ns3:atemp>
            <ns3:hr>111</ns3:hr>
          </ns3:TrackPointExtension>
        </extensions>
      </trkpt>
      <trkpt lat="47.357450835406780242919921875" lon="7.1732184849679470062255859375">
        <ele>444.600006103515625</ele>
        <time>2024-05-19T09:24:19.000Z</time>
        <extensions>
          <ns3:TrackPointExtension>
            <ns3:atemp>29.0</ns3:atemp>
            <ns3:hr>113</ns3:hr>
          </ns3:TrackPointExtension>
        </extensions>
      </trkpt>
      <trkpt lat="47.3573115281760692596435546875" lon="7.1731705404818058013916015625">
        <ele>444.20001220703125</ele>
        <time>2024-05-19T09:24:23.000Z</time>
        <extensions>
          <ns3:TrackPointExtension>
            <ns3:atemp>29.0</ns3:atemp>
            <ns3:hr>112</ns3:hr>
          </ns3:TrackPointExtension>
        </extensions>
      </trkpt>
      <trkpt lat="47.3571834526956081390380859375" lon="7.1731604821979999542236328125">
        <ele>444.79998779296875</ele>
        <time>2024-05-19T09:24:26.000Z</time>
        <extensions>
          <ns3:TrackPointExtension>
            <ns3:atemp>29.0</ns3:atemp>
            <ns3:hr>116</ns3:hr>
          </ns3:TrackPointExtension>
        </extensions>
      </trkpt>
      <trkpt lat="47.357028387486934661865234375" lon="7.1730632521212100982666015625">
        <ele>445.600006103515625</ele>
        <time>2024-05-19T09:24:30.000Z</time>
        <extensions>
          <ns3:TrackPointExtension>
            <ns3:atemp>29.0</ns3:atemp>
            <ns3:hr>119</ns3:hr>
          </ns3:TrackPointExtension>
        </extensions>
      </trkpt>
      <trkpt lat="47.35687977634370326995849609375" lon="7.17303232289850711822509765625">
        <ele>445.600006103515625</ele>
        <time>2024-05-19T09:24:33.000Z</time>
        <extensions>
          <ns3:TrackPointExtension>
            <ns3:atemp>29.0</ns3:atemp>
            <ns3:hr>122</ns3:hr>
          </ns3:TrackPointExtension>
        </extensions>
      </trkpt>
      <trkpt lat="47.35673963092267513275146484375" lon="7.17301690019667148590087890625">
        <ele>444.600006103515625</ele>
        <time>2024-05-19T09:24:36.000Z</time>
        <extensions>
          <ns3:TrackPointExtension>
            <ns3:atemp>29.0</ns3:atemp>
            <ns3:hr>121</ns3:hr>
          </ns3:TrackPointExtension>
        </extensions>
      </trkpt>
      <trkpt lat="47.35658875666558742523193359375" lon="7.17300885356962680816650390625">
        <ele>444.399993896484375</ele>
        <time>2024-05-19T09:24:39.000Z</time>
        <extensions>
          <ns3:TrackPointExtension>
            <ns3:atemp>29.0</ns3:atemp>
            <ns3:hr>122</ns3:hr>
          </ns3:TrackPointExtension>
        </extensions>
      </trkpt>
      <trkpt lat="47.3564515449106693267822265625" lon="7.1729707159101963043212890625">
        <ele>445.600006103515625</ele>
        <time>2024-05-19T09:24:42.000Z</time>
        <extensions>
          <ns3:TrackPointExtension>
            <ns3:atemp>29.0</ns3:atemp>
            <ns3:hr>122</ns3:hr>
          </ns3:TrackPointExtension>
        </extensions>
      </trkpt>
      <trkpt lat="47.35640469007194042205810546875" lon="7.1729207597672939300537109375">
        <ele>445.399993896484375</ele>
        <time>2024-05-19T09:24:43.000Z</time>
        <extensions>
          <ns3:TrackPointExtension>
            <ns3:atemp>29.0</ns3:atemp>
            <ns3:hr>123</ns3:hr>
          </ns3:TrackPointExtension>
        </extensions>
      </trkpt>
      <trkpt lat="47.35631818883121013641357421875" lon="7.1728288941085338592529296875">
        <ele>445.399993896484375</ele>
        <time>2024-05-19T09:24:45.000Z</time>
        <extensions>
          <ns3:TrackPointExtension>
            <ns3:atemp>29.0</ns3:atemp>
            <ns3:hr>125</ns3:hr>
          </ns3:TrackPointExtension>
        </extensions>
      </trkpt>
      <trkpt lat="47.3561905324459075927734375" lon="7.17264357022941112518310546875">
        <ele>445.20001220703125</ele>
        <time>2024-05-19T09:24:48.000Z</time>
        <extensions>
          <ns3:TrackPointExtension>
            <ns3:atemp>29.0</ns3:atemp>
            <ns3:hr>127</ns3:hr>
          </ns3:TrackPointExtension>
        </extensions>
      </trkpt>
      <trkpt lat="47.35615289770066738128662109375" lon="7.17259093187749385833740234375">
        <ele>445.20001220703125</ele>
        <time>2024-05-19T09:24:49.000Z</time>
        <extensions>
          <ns3:TrackPointExtension>
            <ns3:atemp>29.0</ns3:atemp>
            <ns3:hr>130</ns3:hr>
          </ns3:TrackPointExtension>
        </extensions>
      </trkpt>
      <trkpt lat="47.35608031041920185089111328125" lon="7.172486074268817901611328125">
        <ele>444.600006103515625</ele>
        <time>2024-05-19T09:24:51.000Z</time>
        <extensions>
          <ns3:TrackPointExtension>
            <ns3:atemp>29.0</ns3:atemp>
            <ns3:hr>129</ns3:hr>
          </ns3:TrackPointExtension>
        </extensions>
      </trkpt>
      <trkpt lat="47.35589775256812572479248046875" lon="7.17232053168118000030517578125">
        <ele>444.600006103515625</ele>
        <time>2024-05-19T09:24:57.000Z</time>
        <extensions>
          <ns3:TrackPointExtension>
            <ns3:atemp>29.0</ns3:atemp>
            <ns3:hr>131</ns3:hr>
          </ns3:TrackPointExtension>
        </extensions>
      </trkpt>
      <trkpt lat="47.355874367058277130126953125" lon="7.1723377145826816558837890625">
        <ele>443.399993896484375</ele>
        <time>2024-05-19T09:24:58.000Z</time>
        <extensions>
          <ns3:TrackPointExtension>
            <ns3:atemp>29.0</ns3:atemp>
            <ns3:hr>130</ns3:hr>
          </ns3:TrackPointExtension>
        </extensions>
      </trkpt>
      <trkpt lat="47.3557092435657978057861328125" lon="7.17241533100605010986328125">
        <ele>444</ele>
        <time>2024-05-19T09:25:02.000Z</time>
        <extensions>
          <ns3:TrackPointExtension>
            <ns3:atemp>29.0</ns3:atemp>
            <ns3:hr>128</ns3:hr>
          </ns3:TrackPointExtension>
        </extensions>
      </trkpt>
      <trkpt lat="47.35567814670503139495849609375" lon="7.17246000654995441436767578125">
        <ele>444.79998779296875</ele>
        <time>2024-05-19T09:25:03.000Z</time>
        <extensions>
          <ns3:TrackPointExtension>
            <ns3:atemp>29.0</ns3:atemp>
            <ns3:hr>127</ns3:hr>
          </ns3:TrackPointExtension>
        </extensions>
      </trkpt>
      <trkpt lat="47.355540432035923004150390625" lon="7.17231399379670619964599609375">
        <ele>445.79998779296875</ele>
        <time>2024-05-19T09:25:05.000Z</time>
        <extensions>
          <ns3:TrackPointExtension>
            <ns3:atemp>29.0</ns3:atemp>
            <ns3:hr>126</ns3:hr>
          </ns3:TrackPointExtension>
        </extensions>
      </trkpt>
      <trkpt lat="47.35548150725662708282470703125" lon="7.17221022583544254302978515625">
        <ele>446.399993896484375</ele>
        <time>2024-05-19T09:25:07.000Z</time>
        <extensions>
          <ns3:TrackPointExtension>
            <ns3:atemp>29.0</ns3:atemp>
            <ns3:hr>125</ns3:hr>
          </ns3:TrackPointExtension>
        </extensions>
      </trkpt>
      <trkpt lat="47.35532225109636783599853515625" lon="7.17218055389821529388427734375">
        <ele>446.79998779296875</ele>
        <time>2024-05-19T09:25:10.000Z</time>
        <extensions>
          <ns3:TrackPointExtension>
            <ns3:atemp>29.0</ns3:atemp>
            <ns3:hr>128</ns3:hr>
          </ns3:TrackPointExtension>
        </extensions>
      </trkpt>
      <trkpt lat="47.355295680463314056396484375" lon="7.17215515673160552978515625">
        <ele>447.20001220703125</ele>
        <time>2024-05-19T09:25:11.000Z</time>
        <extensions>
          <ns3:TrackPointExtension>
            <ns3:atemp>29.0</ns3:atemp>
            <ns3:hr>125</ns3:hr>
          </ns3:TrackPointExtension>
        </extensions>
      </trkpt>
      <trkpt lat="47.3552700318396091461181640625" lon="7.17210964299738407135009765625">
        <ele>447.399993896484375</ele>
        <time>2024-05-19T09:25:12.000Z</time>
        <extensions>
          <ns3:TrackPointExtension>
            <ns3:atemp>29.0</ns3:atemp>
            <ns3:hr>124</ns3:hr>
          </ns3:TrackPointExtension>
        </extensions>
      </trkpt>
      <trkpt lat="47.3551686108112335205078125" lon="7.172035463154315948486328125">
        <ele>448.399993896484375</ele>
        <time>2024-05-19T09:25:15.000Z</time>
        <extensions>
          <ns3:TrackPointExtension>
            <ns3:atemp>29.0</ns3:atemp>
            <ns3:hr>120</ns3:hr>
          </ns3:TrackPointExtension>
        </extensions>
      </trkpt>
      <trkpt lat="47.35510365106165409088134765625" lon="7.172020711004734039306640625">
        <ele>449</ele>
        <time>2024-05-19T09:25:18.000Z</time>
        <extensions>
          <ns3:TrackPointExtension>
            <ns3:atemp>28.0</ns3:atemp>
            <ns3:hr>122</ns3:hr>
          </ns3:TrackPointExtension>
        </extensions>
      </trkpt>
      <trkpt lat="47.35507230274379253387451171875" lon="7.1720215491950511932373046875">
        <ele>449.399993896484375</ele>
        <time>2024-05-19T09:25:20.000Z</time>
        <extensions>
          <ns3:TrackPointExtension>
            <ns3:atemp>28.0</ns3:atemp>
            <ns3:hr>120</ns3:hr>
          </ns3:TrackPointExtension>
        </extensions>
      </trkpt>
      <trkpt lat="47.35507548786699771881103515625" lon="7.1720212139189243316650390625">
        <ele>449.399993896484375</ele>
        <time>2024-05-19T09:25:23.000Z</time>
        <extensions>
          <ns3:TrackPointExtension>
            <ns3:atemp>28.0</ns3:atemp>
            <ns3:hr>121</ns3:hr>
          </ns3:TrackPointExtension>
        </extensions>
      </trkpt>
      <trkpt lat="47.35507532022893428802490234375" lon="7.172026075422763824462890625">
        <ele>449.79998779296875</ele>
        <time>2024-05-19T09:25:28.000Z</time>
        <extensions>
          <ns3:TrackPointExtension>
            <ns3:atemp>28.0</ns3:atemp>
            <ns3:hr>118</ns3:hr>
          </ns3:TrackPointExtension>
        </extensions>
      </trkpt>
      <trkpt lat="47.35507599078118801116943359375" lon="7.17202682979404926300048828125">
        <ele>449.79998779296875</ele>
        <time>2024-05-19T09:25:29.000Z</time>
        <extensions>
          <ns3:TrackPointExtension>
            <ns3:atemp>28.0</ns3:atemp>
            <ns3:hr>126</ns3:hr>
          </ns3:TrackPointExtension>
        </extensions>
      </trkpt>
      <trkpt lat="47.35507674515247344970703125" lon="7.1720282547175884246826171875">
        <ele>449.79998779296875</ele>
        <time>2024-05-19T09:25:30.000Z</time>
        <extensions>
          <ns3:TrackPointExtension>
            <ns3:atemp>28.0</ns3:atemp>
            <ns3:hr>126</ns3:hr>
          </ns3:TrackPointExtension>
        </extensions>
      </trkpt>
      <trkpt lat="47.35507716424763202667236328125" lon="7.17202783562242984771728515625">
        <ele>449.600006103515625</ele>
        <time>2024-05-19T09:25:31.000Z</time>
        <extensions>
          <ns3:TrackPointExtension>
            <ns3:atemp>28.0</ns3:atemp>
            <ns3:hr>127</ns3:hr>
          </ns3:TrackPointExtension>
        </extensions>
      </trkpt>
      <trkpt lat="47.3550722189247608184814453125" lon="7.172025740146636962890625">
        <ele>449.20001220703125</ele>
        <time>2024-05-19T09:25:33.000Z</time>
        <extensions>
          <ns3:TrackPointExtension>
            <ns3:atemp>28.0</ns3:atemp>
            <ns3:hr>131</ns3:hr>
          </ns3:TrackPointExtension>
        </extensions>
      </trkpt>
      <trkpt lat="47.355062328279018402099609375" lon="7.17203169129788875579833984375">
        <ele>449.20001220703125</ele>
        <time>2024-05-19T09:25:35.000Z</time>
        <extensions>
          <ns3:TrackPointExtension>
            <ns3:atemp>28.0</ns3:atemp>
            <ns3:hr>134</ns3:hr>
          </ns3:TrackPointExtension>
        </extensions>
      </trkpt>
      <trkpt lat="47.35505738295614719390869140625" lon="7.17202783562242984771728515625">
        <ele>449.20001220703125</ele>
        <time>2024-05-19T09:25:37.000Z</time>
        <extensions>
          <ns3:TrackPointExtension>
            <ns3:atemp>28.0</ns3:atemp>
            <ns3:hr>136</ns3:hr>
          </ns3:TrackPointExtension>
        </extensions>
      </trkpt>
      <trkpt lat="47.35504229553043842315673828125" lon="7.17202967964112758636474609375">
        <ele>449.20001220703125</ele>
        <time>2024-05-19T09:25:41.000Z</time>
        <extensions>
          <ns3:TrackPointExtension>
            <ns3:atemp>28.0</ns3:atemp>
            <ns3:hr>135</ns3:hr>
          </ns3:TrackPointExtension>
        </extensions>
      </trkpt>
      <trkpt lat="47.35502117313444614410400390625" lon="7.17203604988753795623779296875">
        <ele>448.79998779296875</ele>
        <time>2024-05-19T09:25:43.000Z</time>
        <extensions>
          <ns3:TrackPointExtension>
            <ns3:atemp>28.0</ns3:atemp>
            <ns3:hr>136</ns3:hr>
          </ns3:TrackPointExtension>
        </extensions>
      </trkpt>
      <trkpt lat="47.3549920879304409027099609375" lon="7.172039486467838287353515625">
        <ele>448.79998779296875</ele>
        <time>2024-05-19T09:25:45.000Z</time>
        <extensions>
          <ns3:TrackPointExtension>
            <ns3:atemp>28.0</ns3:atemp>
            <ns3:hr>136</ns3:hr>
          </ns3:TrackPointExtension>
        </extensions>
      </trkpt>
      <trkpt lat="47.35491941682994365692138671875" lon="7.1720192022621631622314453125">
        <ele>448.600006103515625</ele>
        <time>2024-05-19T09:25:48.000Z</time>
        <extensions>
          <ns3:TrackPointExtension>
            <ns3:atemp>28.0</ns3:atemp>
            <ns3:hr>138</ns3:hr>
          </ns3:TrackPointExtension>
        </extensions>
      </trkpt>
      <trkpt lat="47.3548360168933868408203125" lon="7.17199824750423431396484375">
        <ele>448.600006103515625</ele>
        <time>2024-05-19T09:25:51.000Z</time>
        <extensions>
          <ns3:TrackPointExtension>
            <ns3:atemp>28.0</ns3:atemp>
            <ns3:hr>133</ns3:hr>
          </ns3:TrackPointExtension>
        </extensions>
      </trkpt>
      <trkpt lat="47.35480559058487415313720703125" lon="7.171990871429443359375">
        <ele>448.79998779296875</ele>
        <time>2024-05-19T09:25:52.000Z</time>
        <extensions>
          <ns3:TrackPointExtension>
            <ns3:atemp>28.0</ns3:atemp>
            <ns3:hr>127</ns3:hr>
          </ns3:TrackPointExtension>
        </extensions>
      </trkpt>
      <trkpt lat="47.354773320257663726806640625" lon="7.17198659665882587432861328125">
        <ele>449</ele>
        <time>2024-05-19T09:25:53.000Z</time>
        <extensions>
          <ns3:TrackPointExtension>
            <ns3:atemp>28.0</ns3:atemp>
            <ns3:hr>124</ns3:hr>
          </ns3:TrackPointExtension>
        </extensions>
      </trkpt>
      <trkpt lat="47.35468807630240917205810546875" lon="7.17196010984480381011962890625">
        <ele>449.600006103515625</ele>
        <time>2024-05-19T09:25:56.000Z</time>
        <extensions>
          <ns3:TrackPointExtension>
            <ns3:atemp>28.0</ns3:atemp>
            <ns3:hr>123</ns3:hr>
          </ns3:TrackPointExtension>
        </extensions>
      </trkpt>
      <trkpt lat="47.35453619621694087982177734375" lon="7.1719088964164257049560546875">
        <ele>450.600006103515625</ele>
        <time>2024-05-19T09:26:02.000Z</time>
        <extensions>
          <ns3:TrackPointExtension>
            <ns3:atemp>28.0</ns3:atemp>
            <ns3:hr>124</ns3:hr>
          </ns3:TrackPointExtension>
        </extensions>
      </trkpt>
      <trkpt lat="47.35441801138222217559814453125" lon="7.171922810375690460205078125">
        <ele>451.399993896484375</ele>
        <time>2024-05-19T09:26:07.000Z</time>
        <extensions>
          <ns3:TrackPointExtension>
            <ns3:atemp>28.0</ns3:atemp>
            <ns3:hr>122</ns3:hr>
          </ns3:TrackPointExtension>
        </extensions>
      </trkpt>
      <trkpt lat="47.3544144071638584136962890625" lon="7.1719226427376270294189453125">
        <ele>451.399993896484375</ele>
        <time>2024-05-19T09:26:08.000Z</time>
        <extensions>
          <ns3:TrackPointExtension>
            <ns3:atemp>28.0</ns3:atemp>
            <ns3:hr>126</ns3:hr>
          </ns3:TrackPointExtension>
        </extensions>
      </trkpt>
      <trkpt lat="47.35441314987838268280029296875" lon="7.17192105017602443695068359375">
        <ele>451.399993896484375</ele>
        <time>2024-05-19T09:26:09.000Z</time>
        <extensions>
          <ns3:TrackPointExtension>
            <ns3:atemp>28.0</ns3:atemp>
            <ns3:hr>123</ns3:hr>
          </ns3:TrackPointExtension>
        </extensions>
      </trkpt>
      <trkpt lat="47.354408539831638336181640625" lon="7.17192574404180049896240234375">
        <ele>451</ele>
        <time>2024-05-19T09:26:15.000Z</time>
        <extensions>
          <ns3:TrackPointExtension>
            <ns3:atemp>28.0</ns3:atemp>
            <ns3:hr>122</ns3:hr>
          </ns3:TrackPointExtension>
        </extensions>
      </trkpt>
      <trkpt lat="47.354404516518115997314453125" lon="7.1719058789312839508056640625">
        <ele>450.399993896484375</ele>
        <time>2024-05-19T09:26:23.000Z</time>
        <extensions>
          <ns3:TrackPointExtension>
            <ns3:atemp>28.0</ns3:atemp>
            <ns3:hr>121</ns3:hr>
          </ns3:TrackPointExtension>
        </extensions>
      </trkpt>
      <trkpt lat="47.35442153178155422210693359375" lon="7.17188148759305477142333984375">
        <ele>450.399993896484375</ele>
        <time>2024-05-19T09:26:29.000Z</time>
        <extensions>
          <ns3:TrackPointExtension>
            <ns3:atemp>28.0</ns3:atemp>
            <ns3:hr>118</ns3:hr>
          </ns3:TrackPointExtension>
        </extensions>
      </trkpt>
      <trkpt lat="47.3544315062463283538818359375" lon="7.171883918344974517822265625">
        <ele>450.399993896484375</ele>
        <time>2024-05-19T09:26:31.000Z</time>
        <extensions>
          <ns3:TrackPointExtension>
            <ns3:atemp>28.0</ns3:atemp>
            <ns3:hr>120</ns3:hr>
          </ns3:TrackPointExtension>
        </extensions>
      </trkpt>
      <trkpt lat="47.35445153899490833282470703125" lon="7.1719028614461421966552734375">
        <ele>450.399993896484375</ele>
        <time>2024-05-19T09:26:34.000Z</time>
        <extensions>
          <ns3:TrackPointExtension>
            <ns3:atemp>28.0</ns3:atemp>
            <ns3:hr>116</ns3:hr>
          </ns3:TrackPointExtension>
        </extensions>
      </trkpt>
      <trkpt lat="47.35448741354048252105712890625" lon="7.171896658837795257568359375">
        <ele>450.399993896484375</ele>
        <time>2024-05-19T09:26:40.000Z</time>
        <extensions>
          <ns3:TrackPointExtension>
            <ns3:atemp>28.0</ns3:atemp>
            <ns3:hr>113</ns3:hr>
          </ns3:TrackPointExtension>
        </extensions>
      </trkpt>
      <trkpt lat="47.35448221676051616668701171875" lon="7.17187779955565929412841796875">
        <ele>450.399993896484375</ele>
        <time>2024-05-19T09:26:48.000Z</time>
        <extensions>
          <ns3:TrackPointExtension>
            <ns3:atemp>28.0</ns3:atemp>
            <ns3:hr>110</ns3:hr>
          </ns3:TrackPointExtension>
        </extensions>
      </trkpt>
      <trkpt lat="47.35447769053280353546142578125" lon="7.17187880538403987884521484375">
        <ele>450.399993896484375</ele>
        <time>2024-05-19T09:26:49.000Z</time>
        <extensions>
          <ns3:TrackPointExtension>
            <ns3:atemp>28.0</ns3:atemp>
            <ns3:hr>111</ns3:hr>
          </ns3:TrackPointExtension>
        </extensions>
      </trkpt>
      <trkpt lat="47.35445019789040088653564453125" lon="7.1718850918114185333251953125">
        <ele>450.399993896484375</ele>
        <time>2024-05-19T09:26:54.000Z</time>
        <extensions>
          <ns3:TrackPointExtension>
            <ns3:atemp>28.0</ns3:atemp>
            <ns3:hr>106</ns3:hr>
          </ns3:TrackPointExtension>
        </extensions>
      </trkpt>
      <trkpt lat="47.35444801859557628631591796875" lon="7.17189020477235317230224609375">
        <ele>450.399993896484375</ele>
        <time>2024-05-19T09:26:55.000Z</time>
        <extensions>
          <ns3:TrackPointExtension>
            <ns3:atemp>28.0</ns3:atemp>
            <ns3:hr>102</ns3:hr>
          </ns3:TrackPointExtension>
        </extensions>
      </trkpt>
      <trkpt lat="47.354444079101085662841796875" lon="7.17188970185816287994384765625">
        <ele>450.399993896484375</ele>
        <time>2024-05-19T09:26:57.000Z</time>
        <extensions>
          <ns3:TrackPointExtension>
            <ns3:atemp>28.0</ns3:atemp>
            <ns3:hr>97</ns3:hr>
          </ns3:TrackPointExtension>
        </extensions>
      </trkpt>
      <trkpt lat="47.354446761310100555419921875" lon="7.1718928031623363494873046875">
        <ele>450.399993896484375</ele>
        <time>2024-05-19T09:26:59.000Z</time>
        <extensions>
          <ns3:TrackPointExtension>
            <ns3:atemp>28.0</ns3:atemp>
            <ns3:hr>97</ns3:hr>
          </ns3:TrackPointExtension>
        </extensions>
      </trkpt>
      <trkpt lat="47.35444466583430767059326171875" lon="7.17189288698136806488037109375">
        <ele>450.399993896484375</ele>
        <time>2024-05-19T09:27:02.000Z</time>
        <extensions>
          <ns3:TrackPointExtension>
            <ns3:atemp>28.0</ns3:atemp>
            <ns3:hr>102</ns3:hr>
          </ns3:TrackPointExtension>
        </extensions>
      </trkpt>
      <trkpt lat="47.3544439114630222320556640625" lon="7.171893306076526641845703125">
        <ele>450.399993896484375</ele>
        <time>2024-05-19T09:27:04.000Z</time>
        <extensions>
          <ns3:TrackPointExtension>
            <ns3:atemp>28.0</ns3:atemp>
            <ns3:hr>105</ns3:hr>
          </ns3:TrackPointExtension>
        </extensions>
      </trkpt>
      <trkpt lat="47.35444131307303905487060546875" lon="7.17189523391425609588623046875">
        <ele>450.399993896484375</ele>
        <time>2024-05-19T09:27:07.000Z</time>
        <extensions>
          <ns3:TrackPointExtension>
            <ns3:atemp>28.0</ns3:atemp>
            <ns3:hr>108</ns3:hr>
          </ns3:TrackPointExtension>
        </extensions>
      </trkpt>
      <trkpt lat="47.35443963669240474700927734375" lon="7.171896994113922119140625">
        <ele>450.399993896484375</ele>
        <time>2024-05-19T09:27:09.000Z</time>
        <extensions>
          <ns3:TrackPointExtension>
            <ns3:atemp>28.0</ns3:atemp>
            <ns3:hr>108</ns3:hr>
          </ns3:TrackPointExtension>
        </extensions>
      </trkpt>
      <trkpt lat="47.3544251359999179840087890625" lon="7.171857096254825592041015625">
        <ele>450.399993896484375</ele>
        <time>2024-05-19T09:27:14.000Z</time>
        <extensions>
          <ns3:TrackPointExtension>
            <ns3:atemp>28.0</ns3:atemp>
            <ns3:hr>105</ns3:hr>
          </ns3:TrackPointExtension>
        </extensions>
      </trkpt>
      <trkpt lat="47.35442186705768108367919921875" lon="7.1718612872064113616943359375">
        <ele>450.399993896484375</ele>
        <time>2024-05-19T09:27:17.000Z</time>
        <extensions>
          <ns3:TrackPointExtension>
            <ns3:atemp>28.0</ns3:atemp>
            <ns3:hr>104</ns3:hr>
          </ns3:TrackPointExtension>
        </extensions>
      </trkpt>
      <trkpt lat="47.35441331751644611358642578125" lon="7.1718676574528217315673828125">
        <ele>450.399993896484375</ele>
        <time>2024-05-19T09:27:26.000Z</time>
        <extensions>
          <ns3:TrackPointExtension>
            <ns3:atemp>28.0</ns3:atemp>
            <ns3:hr>103</ns3:hr>
          </ns3:TrackPointExtension>
        </extensions>
      </trkpt>
      <trkpt lat="47.354415915906429290771484375" lon="7.17187059111893177032470703125">
        <ele>450.399993896484375</ele>
        <time>2024-05-19T09:27:31.000Z</time>
        <extensions>
          <ns3:TrackPointExtension>
            <ns3:atemp>28.0</ns3:atemp>
            <ns3:hr>100</ns3:hr>
          </ns3:TrackPointExtension>
        </extensions>
      </trkpt>
      <trkpt lat="47.35441365279257297515869140625" lon="7.1718622930347919464111328125">
        <ele>450.399993896484375</ele>
        <time>2024-05-19T09:27:36.000Z</time>
        <extensions>
          <ns3:TrackPointExtension>
            <ns3:atemp>28.0</ns3:atemp>
            <ns3:hr>98</ns3:hr>
          </ns3:TrackPointExtension>
        </extensions>
      </trkpt>
      <trkpt lat="47.35440912656486034393310546875" lon="7.171854414045810699462890625">
        <ele>450.399993896484375</ele>
        <time>2024-05-19T09:27:40.000Z</time>
        <extensions>
          <ns3:TrackPointExtension>
            <ns3:atemp>28.0</ns3:atemp>
            <ns3:hr>101</ns3:hr>
          </ns3:TrackPointExtension>
        </extensions>
      </trkpt>
      <trkpt lat="47.3544003255665302276611328125" lon="7.1718472056090831756591796875">
        <ele>450.399993896484375</ele>
        <time>2024-05-19T09:27:44.000Z</time>
        <extensions>
          <ns3:TrackPointExtension>
            <ns3:atemp>28.0</ns3:atemp>
            <ns3:hr>101</ns3:hr>
          </ns3:TrackPointExtension>
        </extensions>
      </trkpt>
      <trkpt lat="47.35440191812813282012939453125" lon="7.17182097025215625762939453125">
        <ele>450.399993896484375</ele>
        <time>2024-05-19T09:27:52.000Z</time>
        <extensions>
          <ns3:TrackPointExtension>
            <ns3:atemp>28.0</ns3:atemp>
            <ns3:hr>103</ns3:hr>
          </ns3:TrackPointExtension>
        </extensions>
      </trkpt>
      <trkpt lat="47.354408539831638336181640625" lon="7.17181292362511157989501953125">
        <ele>450.399993896484375</ele>
        <time>2024-05-19T09:27:56.000Z</time>
        <extensions>
          <ns3:TrackPointExtension>
            <ns3:atemp>28.0</ns3:atemp>
            <ns3:hr>106</ns3:hr>
          </ns3:TrackPointExtension>
        </extensions>
      </trkpt>
      <trkpt lat="47.35436260700225830078125" lon="7.17184938490390777587890625">
        <ele>450.399993896484375</ele>
        <time>2024-05-19T09:28:00.000Z</time>
        <extensions>
          <ns3:TrackPointExtension>
            <ns3:atemp>28.0</ns3:atemp>
            <ns3:hr>107</ns3:hr>
          </ns3:TrackPointExtension>
        </extensions>
      </trkpt>
      <trkpt lat="47.35434207133948802947998046875" lon="7.1718780510127544403076171875">
        <ele>450.399993896484375</ele>
        <time>2024-05-19T09:28:10.000Z</time>
        <extensions>
          <ns3:TrackPointExtension>
            <ns3:atemp>28.0</ns3:atemp>
            <ns3:hr>106</ns3:hr>
          </ns3:TrackPointExtension>
        </extensions>
      </trkpt>
      <trkpt lat="47.35433536581695079803466796875" lon="7.17189322225749492645263671875">
        <ele>450.399993896484375</ele>
        <time>2024-05-19T09:28:14.000Z</time>
        <extensions>
          <ns3:TrackPointExtension>
            <ns3:atemp>28.0</ns3:atemp>
            <ns3:hr>102</ns3:hr>
          </ns3:TrackPointExtension>
        </extensions>
      </trkpt>
      <trkpt lat="47.354334108531475067138671875" lon="7.17190076597034931182861328125">
        <ele>450.399993896484375</ele>
        <time>2024-05-19T09:28:17.000Z</time>
        <extensions>
          <ns3:TrackPointExtension>
            <ns3:atemp>28.0</ns3:atemp>
            <ns3:hr>103</ns3:hr>
          </ns3:TrackPointExtension>
        </extensions>
      </trkpt>
      <trkpt lat="47.3543403111398220062255859375" lon="7.1718951500952243804931640625">
        <ele>450.399993896484375</ele>
        <time>2024-05-19T09:28:23.000Z</time>
        <extensions>
          <ns3:TrackPointExtension>
            <ns3:atemp>28.0</ns3:atemp>
            <ns3:hr>101</ns3:hr>
          </ns3:TrackPointExtension>
        </extensions>
      </trkpt>
      <trkpt lat="47.35439118929207324981689453125" lon="7.1719119139015674591064453125">
        <ele>450.399993896484375</ele>
        <time>2024-05-19T09:28:33.000Z</time>
        <extensions>
          <ns3:TrackPointExtension>
            <ns3:atemp>29.0</ns3:atemp>
            <ns3:hr>97</ns3:hr>
          </ns3:TrackPointExtension>
        </extensions>
      </trkpt>
      <trkpt lat="47.354391776025295257568359375" lon="7.17191082425415515899658203125">
        <ele>450.399993896484375</ele>
        <time>2024-05-19T09:28:35.000Z</time>
        <extensions>
          <ns3:TrackPointExtension>
            <ns3:atemp>28.0</ns3:atemp>
            <ns3:hr>100</ns3:hr>
          </ns3:TrackPointExtension>
        </extensions>
      </trkpt>
      <trkpt lat="47.35439705662429332733154296875" lon="7.1719052083790302276611328125">
        <ele>450.399993896484375</ele>
        <time>2024-05-19T09:28:39.000Z</time>
        <extensions>
          <ns3:TrackPointExtension>
            <ns3:atemp>29.0</ns3:atemp>
            <ns3:hr>97</ns3:hr>
          </ns3:TrackPointExtension>
        </extensions>
      </trkpt>
      <trkpt lat="47.35439873300492763519287109375" lon="7.17190160416066646575927734375">
        <ele>450.399993896484375</ele>
        <time>2024-05-19T09:28:41.000Z</time>
        <extensions>
          <ns3:TrackPointExtension>
            <ns3:atemp>29.0</ns3:atemp>
            <ns3:hr>95</ns3:hr>
          </ns3:TrackPointExtension>
        </extensions>
      </trkpt>
      <trkpt lat="47.35439001582562923431396484375" lon="7.17189389280974864959716796875">
        <ele>450.399993896484375</ele>
        <time>2024-05-19T09:28:48.000Z</time>
        <extensions>
          <ns3:TrackPointExtension>
            <ns3:atemp>29.0</ns3:atemp>
            <ns3:hr>92</ns3:hr>
          </ns3:TrackPointExtension>
        </extensions>
      </trkpt>
      <trkpt lat="47.35438968054950237274169921875" lon="7.1718971617519855499267578125">
        <ele>450.399993896484375</ele>
        <time>2024-05-19T09:28:52.000Z</time>
        <extensions>
          <ns3:TrackPointExtension>
            <ns3:atemp>29.0</ns3:atemp>
            <ns3:hr>92</ns3:hr>
          </ns3:TrackPointExtension>
        </extensions>
      </trkpt>
      <trkpt lat="47.3543986491858959197998046875" lon="7.17188701964914798736572265625">
        <ele>450.399993896484375</ele>
        <time>2024-05-19T09:28:59.000Z</time>
        <extensions>
          <ns3:TrackPointExtension>
            <ns3:atemp>29.0</ns3:atemp>
            <ns3:hr>90</ns3:hr>
          </ns3:TrackPointExtension>
        </extensions>
      </trkpt>
      <trkpt lat="47.35441197641193866729736328125" lon="7.17187779955565929412841796875">
        <ele>450.399993896484375</ele>
        <time>2024-05-19T09:29:05.000Z</time>
        <extensions>
          <ns3:TrackPointExtension>
            <ns3:atemp>29.0</ns3:atemp>
            <ns3:hr>87</ns3:hr>
          </ns3:TrackPointExtension>
        </extensions>
      </trkpt>
      <trkpt lat="47.35441382043063640594482421875" lon="7.171875536441802978515625">
        <ele>450.399993896484375</ele>
        <time>2024-05-19T09:29:06.000Z</time>
        <extensions>
          <ns3:TrackPointExtension>
            <ns3:atemp>29.0</ns3:atemp>
            <ns3:hr>91</ns3:hr>
          </ns3:TrackPointExtension>
        </extensions>
      </trkpt>
      <trkpt lat="47.35441130585968494415283203125" lon="7.171870507299900054931640625">
        <ele>450.399993896484375</ele>
        <time>2024-05-19T09:29:08.000Z</time>
        <extensions>
          <ns3:TrackPointExtension>
            <ns3:atemp>29.0</ns3:atemp>
            <ns3:hr>89</ns3:hr>
          </ns3:TrackPointExtension>
        </extensions>
      </trkpt>
      <trkpt lat="47.3544056899845600128173828125" lon="7.1718653105199337005615234375">
        <ele>450.399993896484375</ele>
        <time>2024-05-19T09:29:10.000Z</time>
        <extensions>
          <ns3:TrackPointExtension>
            <ns3:atemp>29.0</ns3:atemp>
            <ns3:hr>86</ns3:hr>
          </ns3:TrackPointExtension>
        </extensions>
      </trkpt>
      <trkpt lat="47.35440024174749851226806640625" lon="7.1718643046915531158447265625">
        <ele>450.399993896484375</ele>
        <time>2024-05-19T09:29:12.000Z</time>
        <extensions>
          <ns3:TrackPointExtension>
            <ns3:atemp>29.0</ns3:atemp>
            <ns3:hr>84</ns3:hr>
          </ns3:TrackPointExtension>
        </extensions>
      </trkpt>
      <trkpt lat="47.35438817180693149566650390625" lon="7.171886265277862548828125">
        <ele>450.399993896484375</ele>
        <time>2024-05-19T09:29:15.000Z</time>
        <extensions>
          <ns3:TrackPointExtension>
            <ns3:atemp>29.0</ns3:atemp>
            <ns3:hr>83</ns3:hr>
          </ns3:TrackPointExtension>
        </extensions>
      </trkpt>
      <trkpt lat="47.3543800413608551025390625" lon="7.17189271934330463409423828125">
        <ele>450.399993896484375</ele>
        <time>2024-05-19T09:29:16.000Z</time>
        <extensions>
          <ns3:TrackPointExtension>
            <ns3:atemp>29.0</ns3:atemp>
            <ns3:hr>83</ns3:hr>
          </ns3:TrackPointExtension>
        </extensions>
      </trkpt>
      <trkpt lat="47.3543084599077701568603515625" lon="7.17187226749956607818603515625">
        <ele>451.20001220703125</ele>
        <time>2024-05-19T09:29:21.000Z</time>
        <extensions>
          <ns3:TrackPointExtension>
            <ns3:atemp>29.0</ns3:atemp>
            <ns3:hr>86</ns3:hr>
          </ns3:TrackPointExtension>
        </extensions>
      </trkpt>
      <trkpt lat="47.35429077409207820892333984375" lon="7.1718619577586650848388671875">
        <ele>451.79998779296875</ele>
        <time>2024-05-19T09:29:22.000Z</time>
        <extensions>
          <ns3:TrackPointExtension>
            <ns3:atemp>29.0</ns3:atemp>
            <ns3:hr>83</ns3:hr>
          </ns3:TrackPointExtension>
        </extensions>
      </trkpt>
      <trkpt lat="47.35422103665769100189208984375" lon="7.17183052562177181243896484375">
        <ele>453</ele>
        <time>2024-05-19T09:29:25.000Z</time>
        <extensions>
          <ns3:TrackPointExtension>
            <ns3:atemp>29.0</ns3:atemp>
            <ns3:hr>82</ns3:hr>
          </ns3:TrackPointExtension>
        </extensions>
      </trkpt>
      <trkpt lat="47.3541428335011005401611328125" lon="7.1717883646488189697265625">
        <ele>453.600006103515625</ele>
        <time>2024-05-19T09:29:28.000Z</time>
        <extensions>
          <ns3:TrackPointExtension>
            <ns3:atemp>29.0</ns3:atemp>
            <ns3:hr>84</ns3:hr>
          </ns3:TrackPointExtension>
        </extensions>
      </trkpt>
      <trkpt lat="47.3541196994483470916748046875" lon="7.17177696526050567626953125">
        <ele>454.20001220703125</ele>
        <time>2024-05-19T09:29:29.000Z</time>
        <extensions>
          <ns3:TrackPointExtension>
            <ns3:atemp>29.0</ns3:atemp>
            <ns3:hr>87</ns3:hr>
          </ns3:TrackPointExtension>
        </extensions>
      </trkpt>
      <trkpt lat="47.35409648157656192779541015625" lon="7.1717650629580020904541015625">
        <ele>454.399993896484375</ele>
        <time>2024-05-19T09:29:30.000Z</time>
        <extensions>
          <ns3:TrackPointExtension>
            <ns3:atemp>29.0</ns3:atemp>
            <ns3:hr>91</ns3:hr>
          </ns3:TrackPointExtension>
        </extensions>
      </trkpt>
      <trkpt lat="47.3540757782757282257080078125" lon="7.17175609432160854339599609375">
        <ele>454.600006103515625</ele>
        <time>2024-05-19T09:29:31.000Z</time>
        <extensions>
          <ns3:TrackPointExtension>
            <ns3:atemp>29.0</ns3:atemp>
            <ns3:hr>94</ns3:hr>
          </ns3:TrackPointExtension>
        </extensions>
      </trkpt>
      <trkpt lat="47.35402557067573070526123046875" lon="7.17175592668354511260986328125">
        <ele>454.79998779296875</ele>
        <time>2024-05-19T09:29:33.000Z</time>
        <extensions>
          <ns3:TrackPointExtension>
            <ns3:atemp>29.0</ns3:atemp>
            <ns3:hr>97</ns3:hr>
          </ns3:TrackPointExtension>
        </extensions>
      </trkpt>
      <trkpt lat="47.35396790318191051483154296875" lon="7.1717352233827114105224609375">
        <ele>454.79998779296875</ele>
        <time>2024-05-19T09:29:35.000Z</time>
        <extensions>
          <ns3:TrackPointExtension>
            <ns3:atemp>29.0</ns3:atemp>
            <ns3:hr>101</ns3:hr>
          </ns3:TrackPointExtension>
        </extensions>
      </trkpt>
      <trkpt lat="47.3539160192012786865234375" lon="7.1717415936291217803955078125">
        <ele>455.399993896484375</ele>
        <time>2024-05-19T09:29:36.000Z</time>
        <extensions>
          <ns3:TrackPointExtension>
            <ns3:atemp>29.0</ns3:atemp>
            <ns3:hr>101</ns3:hr>
          </ns3:TrackPointExtension>
        </extensions>
      </trkpt>
      <trkpt lat="47.353752069175243377685546875" lon="7.17173832468688488006591796875">
        <ele>456</ele>
        <time>2024-05-19T09:29:42.000Z</time>
        <extensions>
          <ns3:TrackPointExtension>
            <ns3:atemp>29.0</ns3:atemp>
            <ns3:hr>103</ns3:hr>
          </ns3:TrackPointExtension>
        </extensions>
      </trkpt>
      <trkpt lat="47.3536486364901065826416015625" lon="7.17169649899005889892578125">
        <ele>456.20001220703125</ele>
        <time>2024-05-19T09:29:46.000Z</time>
        <extensions>
          <ns3:TrackPointExtension>
            <ns3:atemp>29.0</ns3:atemp>
            <ns3:hr>107</ns3:hr>
          </ns3:TrackPointExtension>
        </extensions>
      </trkpt>
      <trkpt lat="47.35363011248409748077392578125" lon="7.1716983430087566375732421875">
        <ele>456.399993896484375</ele>
        <time>2024-05-19T09:29:47.000Z</time>
        <extensions>
          <ns3:TrackPointExtension>
            <ns3:atemp>29.0</ns3:atemp>
            <ns3:hr>106</ns3:hr>
          </ns3:TrackPointExtension>
        </extensions>
      </trkpt>
      <trkpt lat="47.35360697843134403228759765625" lon="7.17170177958905696868896484375">
        <ele>456.79998779296875</ele>
        <time>2024-05-19T09:29:48.000Z</time>
        <extensions>
          <ns3:TrackPointExtension>
            <ns3:atemp>30.0</ns3:atemp>
            <ns3:hr>106</ns3:hr>
          </ns3:TrackPointExtension>
        </extensions>
      </trkpt>
      <trkpt lat="47.35356557182967662811279296875" lon="7.17170848511159420013427734375">
        <ele>457</ele>
        <time>2024-05-19T09:29:50.000Z</time>
        <extensions>
          <ns3:TrackPointExtension>
            <ns3:atemp>30.0</ns3:atemp>
            <ns3:hr>111</ns3:hr>
          </ns3:TrackPointExtension>
        </extensions>
      </trkpt>
      <trkpt lat="47.35346079804003238677978515625" lon="7.17163883149623870849609375">
        <ele>457.399993896484375</ele>
        <time>2024-05-19T09:29:53.000Z</time>
        <extensions>
          <ns3:TrackPointExtension>
            <ns3:atemp>30.0</ns3:atemp>
            <ns3:hr>109</ns3:hr>
          </ns3:TrackPointExtension>
        </extensions>
      </trkpt>
      <trkpt lat="47.353442944586277008056640625" lon="7.17163505963981151580810546875">
        <ele>457.600006103515625</ele>
        <time>2024-05-19T09:29:54.000Z</time>
        <extensions>
          <ns3:TrackPointExtension>
            <ns3:atemp>30.0</ns3:atemp>
            <ns3:hr>112</ns3:hr>
          </ns3:TrackPointExtension>
        </extensions>
      </trkpt>
      <trkpt lat="47.3534260131418704986572265625" lon="7.17162676155567169189453125">
        <ele>457.600006103515625</ele>
        <time>2024-05-19T09:29:55.000Z</time>
        <extensions>
          <ns3:TrackPointExtension>
            <ns3:atemp>30.0</ns3:atemp>
            <ns3:hr>112</ns3:hr>
          </ns3:TrackPointExtension>
        </extensions>
      </trkpt>
      <trkpt lat="47.35339676029980182647705078125" lon="7.171621732413768768310546875">
        <ele>457.79998779296875</ele>
        <time>2024-05-19T09:29:57.000Z</time>
        <extensions>
          <ns3:TrackPointExtension>
            <ns3:atemp>30.0</ns3:atemp>
            <ns3:hr>116</ns3:hr>
          </ns3:TrackPointExtension>
        </extensions>
      </trkpt>
      <trkpt lat="47.3533837683498859405517578125" lon="7.1716153621673583984375">
        <ele>458</ele>
        <time>2024-05-19T09:29:58.000Z</time>
        <extensions>
          <ns3:TrackPointExtension>
            <ns3:atemp>30.0</ns3:atemp>
            <ns3:hr>119</ns3:hr>
          </ns3:TrackPointExtension>
        </extensions>
      </trkpt>
      <trkpt lat="47.35337278805673122406005859375" lon="7.17161561362445354461669921875">
        <ele>458.20001220703125</ele>
        <time>2024-05-19T09:29:59.000Z</time>
        <extensions>
          <ns3:TrackPointExtension>
            <ns3:atemp>30.0</ns3:atemp>
            <ns3:hr>122</ns3:hr>
          </ns3:TrackPointExtension>
        </extensions>
      </trkpt>
      <trkpt lat="47.35335837118327617645263671875" lon="7.17161930166184902191162109375">
        <ele>458.600006103515625</ele>
        <time>2024-05-19T09:30:00.000Z</time>
        <extensions>
          <ns3:TrackPointExtension>
            <ns3:atemp>30.0</ns3:atemp>
            <ns3:hr>119</ns3:hr>
          </ns3:TrackPointExtension>
        </extensions>
      </trkpt>
      <trkpt lat="47.35329818911850452423095703125" lon="7.17164427973330020904541015625">
        <ele>459</ele>
        <time>2024-05-19T09:30:03.000Z</time>
        <extensions>
          <ns3:TrackPointExtension>
            <ns3:atemp>30.0</ns3:atemp>
            <ns3:hr>123</ns3:hr>
          </ns3:TrackPointExtension>
        </extensions>
      </trkpt>
      <trkpt lat="47.35322208143770694732666015625" lon="7.17165836133062839508056640625">
        <ele>459.600006103515625</ele>
        <time>2024-05-19T09:30:06.000Z</time>
        <extensions>
          <ns3:TrackPointExtension>
            <ns3:atemp>30.0</ns3:atemp>
            <ns3:hr>123</ns3:hr>
          </ns3:TrackPointExtension>
        </extensions>
      </trkpt>
      <trkpt lat="47.35309668816626071929931640625" lon="7.17166188172996044158935546875">
        <ele>460.20001220703125</ele>
        <time>2024-05-19T09:30:10.000Z</time>
        <extensions>
          <ns3:TrackPointExtension>
            <ns3:atemp>30.0</ns3:atemp>
            <ns3:hr>125</ns3:hr>
          </ns3:TrackPointExtension>
        </extensions>
      </trkpt>
      <trkpt lat="47.35302074812352657318115234375" lon="7.1716703474521636962890625">
        <ele>460.79998779296875</ele>
        <time>2024-05-19T09:30:12.000Z</time>
        <extensions>
          <ns3:TrackPointExtension>
            <ns3:atemp>30.0</ns3:atemp>
            <ns3:hr>126</ns3:hr>
          </ns3:TrackPointExtension>
        </extensions>
      </trkpt>
      <trkpt lat="47.3528912477195262908935546875" lon="7.17170982621610164642333984375">
        <ele>461.20001220703125</ele>
        <time>2024-05-19T09:30:17.000Z</time>
        <extensions>
          <ns3:TrackPointExtension>
            <ns3:atemp>30.0</ns3:atemp>
            <ns3:hr>123</ns3:hr>
          </ns3:TrackPointExtension>
        </extensions>
      </trkpt>
      <trkpt lat="47.35287121497094631195068359375" lon="7.17171804048120975494384765625">
        <ele>461.20001220703125</ele>
        <time>2024-05-19T09:30:18.000Z</time>
        <extensions>
          <ns3:TrackPointExtension>
            <ns3:atemp>30.0</ns3:atemp>
            <ns3:hr>126</ns3:hr>
          </ns3:TrackPointExtension>
        </extensions>
      </trkpt>
      <trkpt lat="47.35264423303306102752685546875" lon="7.17184267938137054443359375">
        <ele>462</ele>
        <time>2024-05-19T09:30:25.000Z</time>
        <extensions>
          <ns3:TrackPointExtension>
            <ns3:atemp>30.0</ns3:atemp>
            <ns3:hr>125</ns3:hr>
          </ns3:TrackPointExtension>
        </extensions>
      </trkpt>
      <trkpt lat="47.3524654470384120941162109375" lon="7.1719484589993953704833984375">
        <ele>463</ele>
        <time>2024-05-19T09:30:32.000Z</time>
        <extensions>
          <ns3:TrackPointExtension>
            <ns3:atemp>30.0</ns3:atemp>
            <ns3:hr>124</ns3:hr>
          </ns3:TrackPointExtension>
        </extensions>
      </trkpt>
      <trkpt lat="47.3522176779806613922119140625" lon="7.17207326553761959075927734375">
        <ele>464</ele>
        <time>2024-05-19T09:30:38.000Z</time>
        <extensions>
          <ns3:TrackPointExtension>
            <ns3:atemp>30.0</ns3:atemp>
            <ns3:hr>124</ns3:hr>
          </ns3:TrackPointExtension>
        </extensions>
      </trkpt>
      <trkpt lat="47.35219605267047882080078125" lon="7.17209891416132450103759765625">
        <ele>464.20001220703125</ele>
        <time>2024-05-19T09:30:39.000Z</time>
        <extensions>
          <ns3:TrackPointExtension>
            <ns3:atemp>30.0</ns3:atemp>
            <ns3:hr>124</ns3:hr>
          </ns3:TrackPointExtension>
        </extensions>
      </trkpt>
      <trkpt lat="47.35200829803943634033203125" lon="7.1722475253045558929443359375">
        <ele>465.20001220703125</ele>
        <time>2024-05-19T09:30:45.000Z</time>
        <extensions>
          <ns3:TrackPointExtension>
            <ns3:atemp>30.0</ns3:atemp>
            <ns3:hr>121</ns3:hr>
          </ns3:TrackPointExtension>
        </extensions>
      </trkpt>
      <trkpt lat="47.35195037908852100372314453125" lon="7.17229052446782588958740234375">
        <ele>465.20001220703125</ele>
        <time>2024-05-19T09:30:47.000Z</time>
        <extensions>
          <ns3:TrackPointExtension>
            <ns3:atemp>30.0</ns3:atemp>
            <ns3:hr>121</ns3:hr>
          </ns3:TrackPointExtension>
        </extensions>
      </trkpt>
      <trkpt lat="47.351824901998043060302734375" lon="7.17242413200438022613525390625">
        <ele>465.399993896484375</ele>
        <time>2024-05-19T09:30:52.000Z</time>
        <extensions>
          <ns3:TrackPointExtension>
            <ns3:atemp>30.0</ns3:atemp>
            <ns3:hr>119</ns3:hr>
          </ns3:TrackPointExtension>
        </extensions>
      </trkpt>
      <trkpt lat="47.35175776295363903045654296875" lon="7.1725046820938587188720703125">
        <ele>466.399993896484375</ele>
        <time>2024-05-19T09:30:55.000Z</time>
        <extensions>
          <ns3:TrackPointExtension>
            <ns3:atemp>30.0</ns3:atemp>
            <ns3:hr>117</ns3:hr>
          </ns3:TrackPointExtension>
        </extensions>
      </trkpt>
      <trkpt lat="47.35173949040472507476806640625" lon="7.17253259383141994476318359375">
        <ele>466.600006103515625</ele>
        <time>2024-05-19T09:30:56.000Z</time>
        <extensions>
          <ns3:TrackPointExtension>
            <ns3:atemp>30.0</ns3:atemp>
            <ns3:hr>121</ns3:hr>
          </ns3:TrackPointExtension>
        </extensions>
      </trkpt>
      <trkpt lat="47.351678051054477691650390625" lon="7.1726247109472751617431640625">
        <ele>466.79998779296875</ele>
        <time>2024-05-19T09:30:59.000Z</time>
        <extensions>
          <ns3:TrackPointExtension>
            <ns3:atemp>30.0</ns3:atemp>
            <ns3:hr>121</ns3:hr>
          </ns3:TrackPointExtension>
        </extensions>
      </trkpt>
      <trkpt lat="47.3515783064067363739013671875" lon="7.17273593880236148834228515625">
        <ele>467.20001220703125</ele>
        <time>2024-05-19T09:31:03.000Z</time>
        <extensions>
          <ns3:TrackPointExtension>
            <ns3:atemp>30.0</ns3:atemp>
            <ns3:hr>124</ns3:hr>
          </ns3:TrackPointExtension>
        </extensions>
      </trkpt>
      <trkpt lat="47.35152139328420162200927734375" lon="7.17277416028082370758056640625">
        <ele>467.399993896484375</ele>
        <time>2024-05-19T09:31:05.000Z</time>
        <extensions>
          <ns3:TrackPointExtension>
            <ns3:atemp>30.0</ns3:atemp>
            <ns3:hr>123</ns3:hr>
          </ns3:TrackPointExtension>
        </extensions>
      </trkpt>
      <trkpt lat="47.351345457136631011962890625" lon="7.17281690798699855804443359375">
        <ele>468</ele>
        <time>2024-05-19T09:31:11.000Z</time>
        <extensions>
          <ns3:TrackPointExtension>
            <ns3:atemp>30.0</ns3:atemp>
            <ns3:hr>122</ns3:hr>
          </ns3:TrackPointExtension>
        </extensions>
      </trkpt>
      <trkpt lat="47.35131855122745037078857421875" lon="7.1728060953319072723388671875">
        <ele>468.20001220703125</ele>
        <time>2024-05-19T09:31:12.000Z</time>
        <extensions>
          <ns3:TrackPointExtension>
            <ns3:atemp>30.0</ns3:atemp>
            <ns3:hr>126</ns3:hr>
          </ns3:TrackPointExtension>
        </extensions>
      </trkpt>
      <trkpt lat="47.3512594588100910186767578125" lon="7.17278815805912017822265625">
        <ele>468.600006103515625</ele>
        <time>2024-05-19T09:31:14.000Z</time>
        <extensions>
          <ns3:TrackPointExtension>
            <ns3:atemp>30.0</ns3:atemp>
            <ns3:hr>123</ns3:hr>
          </ns3:TrackPointExtension>
        </extensions>
      </trkpt>
      <trkpt lat="47.35115963034331798553466796875" lon="7.1727537922561168670654296875">
        <ele>468.399993896484375</ele>
        <time>2024-05-19T09:31:17.000Z</time>
        <extensions>
          <ns3:TrackPointExtension>
            <ns3:atemp>30.0</ns3:atemp>
            <ns3:hr>121</ns3:hr>
          </ns3:TrackPointExtension>
        </extensions>
      </trkpt>
    </trkseg>
  </trk>
</gpx>
